start=new Date('2023-01-10T00:00:00.000Z').valueOf();
sats=[{"BSTAR":"0.00035426000000","GP_ID":"222576656","OBJECT_ID":"2022-045G","TLE_LINE2":"2 52337  53.2179 354.1116 0002411  50.0750 310.0454 15.08859434 41273","RCS_SIZE":"LARGE","PERIAPSIS":"538.018","COUNTRY_CODE":"US","RA_OF_ASC_NODE":"354.1116","OBJECT_NAME":"STARLINK-3797","FILE":"3737376","CENTER_NAME":"EARTH","MEAN_MOTION_DDOT":"0.0000000000000","ECCENTRICITY":"0.00024110","TIME_SYSTEM":"UTC","MEAN_ANOMALY":"310.0454","APOAPSIS":"541.354","REF_FRAME":"TEME","PERIOD":"95.436","CLASSIFICATION_TYPE":"U","TLE_LINE1":"1 52337U 22045G   23009.68931018  .00005357  00000-0  35426-3 0  9996","SITE":"AFETR","SEMIMAJOR_AXIS":"6917.821","EPOCH":"2023-01-09T16:32:36.399552","EPHEMERIS_TYPE":"0","REV_AT_EPOCH":"4127","DECAY_DATE":null,"LAUNCH_DATE":"2022-04-29","NORAD_CAT_ID":"52337","ARG_OF_PERICENTER":"50.0750","MEAN_ELEMENT_THEORY":"SGP4","ELEMENT_SET_NO":"999","MEAN_MOTION":"15.08859434","MEAN_MOTION_DOT":"0.00005357","INCLINATION":"53.2179","OBJECT_TYPE":"PAYLOAD"},{"REF_FRAME":"TEME","APOAPSIS":"541.432","MEAN_ANOMALY":"330.7205","ECCENTRICITY":"0.00024060","TIME_SYSTEM":"UTC","FILE":"3737263","MEAN_MOTION_DDOT":"0.0000000000000","CENTER_NAME":"EARTH","TLE_LINE2":"2 52338  53.2175 356.0483 0002406  29.3922 330.7205 15.08832848 41219","RCS_SIZE":"LARGE","PERIAPSIS":"538.103","COUNTRY_CODE":"US","RA_OF_ASC_NODE":"356.0483","OBJECT_NAME":"STARLINK-3815","OBJECT_ID":"2022-045H","BSTAR":"-0.00002736200000","GP_ID":"222545608","OBJECT_TYPE":"PAYLOAD","INCLINATION":"53.2175","ELEMENT_SET_NO":"999","MEAN_MOTION":"15.08832848","MEAN_MOTION_DOT":"-0.00000724","MEAN_ELEMENT_THEORY":"SGP4","ARG_OF_PERICENTER":"29.3922","NORAD_CAT_ID":"52338","SEMIMAJOR_AXIS":"6917.902","EPOCH":"2023-01-09T06:19:13.826208","EPHEMERIS_TYPE":"0","SITE":"AFETR","DECAY_DATE":null,"LAUNCH_DATE":"2022-04-29","REV_AT_EPOCH":"4121","TLE_LINE1":"1 52338U 22045H   23009.26335447 -.00000724  00000-0 -27362-4 0  9991","PERIOD":"95.438","CLASSIFICATION_TYPE":"U"},{"ELEMENT_SET_NO":"999","MEAN_MOTION":"15.08845434","MEAN_MOTION_DOT":"0.00003179","ARG_OF_PERICENTER":"28.0368","MEAN_ELEMENT_THEORY":"SGP4","OBJECT_TYPE":"PAYLOAD","INCLINATION":"53.2188","TLE_LINE1":"1 52339U 22045J   23009.66450190  .00003179  00000-0  21771-3 0  9991","PERIOD":"95.437","CLASSIFICATION_TYPE":"U","NORAD_CAT_ID":"52339","SITE":"AFETR","EPOCH":"2023-01-09T15:56:52.964160","SEMIMAJOR_AXIS":"6917.864","EPHEMERIS_TYPE":"0","REV_AT_EPOCH":"4127","DECAY_DATE":null,"LAUNCH_DATE":"2022-04-29","TIME_SYSTEM":"UTC","ECCENTRICITY":"0.00027850","FILE":"3737383","CENTER_NAME":"EARTH","MEAN_MOTION_DDOT":"0.0000000000000","MEAN_ANOMALY":"332.0773","APOAPSIS":"541.655","REF_FRAME":"TEME","OBJECT_ID":"2022-045J","BSTAR":"0.00021771000000","GP_ID":"222576685","PERIAPSIS":"537.802","TLE_LINE2":"2 52339  53.2188 354.2406 0002785  28.0368 332.0773 15.08845434 41275","RCS_SIZE":"LARGE","RA_OF_ASC_NODE":"354.2406","COUNTRY_CODE":"US","OBJECT_NAME":"STARLINK-3792"},{"ARG_OF_PERICENTER":"28.2837","MEAN_ELEMENT_THEORY":"SGP4","ELEMENT_SET_NO":"999","MEAN_MOTION_DOT":"0.00002166","MEAN_MOTION":"15.08841651","INCLINATION":"53.2185","OBJECT_TYPE":"PAYLOAD","PERIOD":"95.437","CLASSIFICATION_TYPE":"U","TLE_LINE1":"1 52340U 22045K   23009.62766727  .00002166  00000-0  15415-3 0  9998","SITE":"AFETR","SEMIMAJOR_AXIS":"6917.875","EPHEMERIS_TYPE":"0","EPOCH":"2023-01-09T15:03:50.452128","DECAY_DATE":null,"LAUNCH_DATE":"2022-04-29","REV_AT_EPOCH":"4139","NORAD_CAT_ID":"52340","FILE":"3737376","CENTER_NAME":"EARTH","MEAN_MOTION_DDOT":"0.0000000000000","ECCENTRICITY":"0.00026740","TIME_SYSTEM":"UTC","MEAN_ANOMALY":"331.8300","APOAPSIS":"541.590","REF_FRAME":"TEME","BSTAR":"0.00015415000000","GP_ID":"222576647","OBJECT_ID":"2022-045K","TLE_LINE2":"2 52340  53.2185 344.3905 0002674  28.2837 331.8300 15.08841651 41391","PERIAPSIS":"537.891","RCS_SIZE":"LARGE","RA_OF_ASC_NODE":"344.3905","COUNTRY_CODE":"US","OBJECT_NAME":"STARLINK-3818"},{"MEAN_MOTION":"15.08842574","MEAN_MOTION_DOT":"0.00006557","ELEMENT_SET_NO":"999","ARG_OF_PERICENTER":"27.9979","MEAN_ELEMENT_THEORY":"SGP4","OBJECT_TYPE":"PAYLOAD","INCLINATION":"53.2167","TLE_LINE1":"1 52341U 22045L   23008.74082557  .00006557  00000-0  42965-3 0  9991","CLASSIFICATION_TYPE":"U","PERIOD":"95.437","NORAD_CAT_ID":"52341","DECAY_DATE":null,"LAUNCH_DATE":"2022-04-29","REV_AT_EPOCH":"4113","SITE":"AFETR","SEMIMAJOR_AXIS":"6917.873","EPOCH":"2023-01-08T17:46:47.329248","EPHEMERIS_TYPE":"0","TIME_SYSTEM":"UTC","ECCENTRICITY":"0.00028490","CENTER_NAME":"EARTH","MEAN_MOTION_DDOT":"0.0000000000000","FILE":"3736460","MEAN_ANOMALY":"332.1166","APOAPSIS":"541.708","REF_FRAME":"TEME","OBJECT_ID":"2022-045L","GP_ID":"222499668","BSTAR":"0.00042965000000","COUNTRY_CODE":"US","OBJECT_NAME":"STARLINK-3843","RA_OF_ASC_NODE":"358.3818","RCS_SIZE":"LARGE","TLE_LINE2":"2 52341  53.2167 358.3818 0002849  27.9979 332.1166 15.08842574 41138","PERIAPSIS":"537.767"},{"TIME_SYSTEM":"UTC","ECCENTRICITY":"0.00025900","CENTER_NAME":"EARTH","MEAN_MOTION_DDOT":"0.0000000000000","FILE":"3737263","MEAN_ANOMALY":"330.2990","APOAPSIS":"541.543","REF_FRAME":"TEME","OBJECT_ID":"2022-045M","GP_ID":"222545108","BSTAR":"0.00020475000000","OBJECT_NAME":"STARLINK-3850","COUNTRY_CODE":"US","RA_OF_ASC_NODE":"346.2113","TLE_LINE2":"2 52342  53.2168 346.2113 0002590  29.8150 330.2990 15.08838206 41343","RCS_SIZE":"LARGE","PERIAPSIS":"537.959","MEAN_MOTION_DOT":"0.00002972","MEAN_MOTION":"15.08838206","ELEMENT_SET_NO":"999","ARG_OF_PERICENTER":"29.8150","MEAN_ELEMENT_THEORY":"SGP4","OBJECT_TYPE":"PAYLOAD","INCLINATION":"53.2168","TLE_LINE1":"1 52342U 22045M   23009.22287342  .00002972  00000-0  20475-3 0  9994","CLASSIFICATION_TYPE":"U","PERIOD":"95.438","NORAD_CAT_ID":"52342","REV_AT_EPOCH":"4134","DECAY_DATE":null,"LAUNCH_DATE":"2022-04-29","SITE":"AFETR","EPOCH":"2023-01-09T05:20:56.263488","SEMIMAJOR_AXIS":"6917.886","EPHEMERIS_TYPE":"0"},{"TLE_LINE1":"1 52343U 22045N   23009.23666606  .00005828  00000-0  38385-3 0  9992","PERIOD":"95.437","CLASSIFICATION_TYPE":"U","NORAD_CAT_ID":"52343","SITE":"AFETR","SEMIMAJOR_AXIS":"6917.848","EPHEMERIS_TYPE":"0","EPOCH":"2023-01-09T05:40:47.947584","REV_AT_EPOCH":"4121","DECAY_DATE":null,"LAUNCH_DATE":"2022-04-29","ELEMENT_SET_NO":"999","MEAN_MOTION_DOT":"0.00005828","MEAN_MOTION":"15.08850477","ARG_OF_PERICENTER":"30.3422","MEAN_ELEMENT_THEORY":"SGP4","OBJECT_TYPE":"PAYLOAD","INCLINATION":"53.2171","OBJECT_ID":"2022-045N","BSTAR":"0.00038385000000","GP_ID":"222544358","TLE_LINE2":"2 52343  53.2171 356.1648 0003045  30.3422 329.7746 15.08850477 41218","PERIAPSIS":"537.607","RCS_SIZE":"LARGE","OBJECT_NAME":"STARLINK-3849","COUNTRY_CODE":"US","RA_OF_ASC_NODE":"356.1648","ECCENTRICITY":"0.00030450","TIME_SYSTEM":"UTC","FILE":"3737263","CENTER_NAME":"EARTH","MEAN_MOTION_DDOT":"0.0000000000000","MEAN_ANOMALY":"329.7746","APOAPSIS":"541.820","REF_FRAME":"TEME"},{"EPOCH":"2023-01-09T14:44:00.786336","SEMIMAJOR_AXIS":"6917.848","EPHEMERIS_TYPE":"0","SITE":"AFETR","DECAY_DATE":null,"LAUNCH_DATE":"2022-04-29","REV_AT_EPOCH":"4140","NORAD_CAT_ID":"52344","PERIOD":"95.437","CLASSIFICATION_TYPE":"U","TLE_LINE1":"1 52344U 22045P   23009.61389799  .00004442  00000-0  29691-3 0  9991","INCLINATION":"53.2175","OBJECT_TYPE":"PAYLOAD","MEAN_ELEMENT_THEORY":"SGP4","ARG_OF_PERICENTER":"25.0384","ELEMENT_SET_NO":"999","MEAN_MOTION_DOT":"0.00004442","MEAN_MOTION":"15.08850558","TLE_LINE2":"2 52344  53.2175 344.4614 0002871  25.0384 335.0747 15.08850558 41402","PERIAPSIS":"537.727","RCS_SIZE":"LARGE","COUNTRY_CODE":"US","RA_OF_ASC_NODE":"344.4614","OBJECT_NAME":"STARLINK-3851","BSTAR":"0.00029691000000","GP_ID":"222582135","OBJECT_ID":"2022-045P","REF_FRAME":"TEME","APOAPSIS":"541.699","MEAN_ANOMALY":"335.0747","FILE":"3737648","MEAN_MOTION_DDOT":"0.0000000000000","CENTER_NAME":"EARTH","ECCENTRICITY":"0.00028710","TIME_SYSTEM":"UTC"},{"NORAD_CAT_ID":"52345","REV_AT_EPOCH":"4140","DECAY_DATE":null,"LAUNCH_DATE":"2022-04-29","SITE":"AFETR","SEMIMAJOR_AXIS":"6917.882","EPHEMERIS_TYPE":"0","EPOCH":"2023-01-09T16:44:31.455456","TLE_LINE1":"1 52345U 22045Q   23009.69758629  .00001428  00000-0  10780-3 0  9992","CLASSIFICATION_TYPE":"U","PERIOD":"95.438","OBJECT_TYPE":"PAYLOAD","INCLINATION":"53.2181","MEAN_MOTION":"15.08839314","MEAN_MOTION_DOT":"0.00001428","ELEMENT_SET_NO":"999","ARG_OF_PERICENTER":"26.9078","MEAN_ELEMENT_THEORY":"SGP4","COUNTRY_CODE":"US","OBJECT_NAME":"STARLINK-3852","RA_OF_ASC_NODE":"344.0844","PERIAPSIS":"537.926","TLE_LINE2":"2 52345  53.2181 344.0844 0002633  26.9078 333.2050 15.08839314 41401","RCS_SIZE":"LARGE","OBJECT_ID":"2022-045Q","GP_ID":"222576405","BSTAR":"0.00010780000000","MEAN_ANOMALY":"333.2050","REF_FRAME":"TEME","APOAPSIS":"541.569","ECCENTRICITY":"0.00026330","TIME_SYSTEM":"UTC","CENTER_NAME":"EARTH","MEAN_MOTION_DDOT":"0.0000000000000","FILE":"3737376"},{"MEAN_ELEMENT_THEORY":"SGP4","ARG_OF_PERICENTER":"26.6650","ELEMENT_SET_NO":"999","MEAN_MOTION":"15.08847838","MEAN_MOTION_DOT":"0.00004552","INCLINATION":"53.2195","OBJECT_TYPE":"PAYLOAD","PERIOD":"95.437","CLASSIFICATION_TYPE":"U","TLE_LINE1":"1 52346U 22045R   23009.61294300  .00004552  00000-0  30385-3 0  9990","EPHEMERIS_TYPE":"0","SEMIMAJOR_AXIS":"6917.856","EPOCH":"2023-01-09T14:42:38.275200","SITE":"AFETR","REV_AT_EPOCH":"4140","DECAY_DATE":null,"LAUNCH_DATE":"2022-04-29","NORAD_CAT_ID":"52346","FILE":"3737376","MEAN_MOTION_DDOT":"0.0000000000000","CENTER_NAME":"EARTH","ECCENTRICITY":"0.00030430","TIME_SYSTEM":"UTC","REF_FRAME":"TEME","APOAPSIS":"541.827","MEAN_ANOMALY":"333.4498","BSTAR":"0.00030385000000","GP_ID":"222576414","OBJECT_ID":"2022-045R","TLE_LINE2":"2 52346  53.2195 344.4627 0003043  26.6650 333.4498 15.08847838 41407","PERIAPSIS":"537.616","RCS_SIZE":"LARGE","RA_OF_ASC_NODE":"344.4627","COUNTRY_CODE":"US","OBJECT_NAME":"STARLINK-3812"}];
